{"type": "FeatureCollection", "features": [ {"type": "Feature", "properties": {"norad_id": 34375, "name": "IRIDIUM 33 DEB", "group": "iridium-33-debris", "lat": -6.423792943368461, "lon": -174.78021233145262, "alt_km": 903.4485450947313, "timestamp": "2025-12-05T11:32:56.402450+00:00", "meta": {"OBJECT_NAME": "IRIDIUM 33 DEB", "OBJECT_ID": "1997-051FT", "EPOCH": "2025-12-04T13:42:06.507360", "MEAN_MOTION": 14.17970346, "ECCENTRICITY": 0.0102617, "INCLINATION": 86.4331, "RA_OF_ASC_NODE": 185.989, "ARG_OF_PERICENTER": 152.4354, "MEAN_ANOMALY": 237.8204, "EPHEMERIS_TYPE": 0, "CLASSIFICATION_TYPE": "U", "NORAD_CAT_ID": 34375, "ELEMENT_SET_NO": 999, "REV_AT_EPOCH": 86596, "BSTAR": 0.0006989, "MEAN_MOTION_DOT": 1.525e-05, "MEAN_MOTION_DDOT": 0}, "tle": {"line1": "1 34375U 97051FT  25338.57090865  .00001525  00000+0  69890-3 0  9992", "line2": "2 34375  86.4331 185.9890 0102617 152.4354 237.8204 14.17970346865962"}}, "geometry": {"type": "Point", "coordinates": [-174.78021233145262, -6.423792943368461]}}, {"type": "Feature", "properties": {"norad_id": 34376, "name": "IRIDIUM 33 DEB", "group": "iridium-33-debris", "lat": -74.0549783979554, "lon": -3.2902570683200087, "alt_km": 694.0503666779659, "timestamp": "2025-12-05T11:32:56.402461+00:00", "meta": {"OBJECT_NAME": "IRIDIUM 33 DEB", "OBJECT_ID": "1997-051FU", "EPOCH": "2025-12-04T06:19:49.811808", "MEAN_MOTION": 14.62377992, "ECCENTRICITY": 0.0026189, "INCLINATION": 86.2991, "RA_OF_ASC_NODE": 10.3504, "ARG_OF_PERICENTER": 195.5918, "MEAN_ANOMALY": 164.449, "EPHEMERIS_TYPE": 0, "CLASSIFICATION_TYPE": "U", "NORAD_CAT_ID": 34376, "ELEMENT_SET_NO": 999, "REV_AT_EPOCH": 87883, "BSTAR": 0.0035031, "MEAN_MOTION_DOT": 0.00017843, "MEAN_MOTION_DDOT": 0}, "tle": {"line1": "1 34376U 97051FU  25338.26377097  .00017843  00000+0  35031-2 0  9993", "line2": "2 34376  86.2991  10.3504 0026189 195.5918 164.4490 14.62377992878839"}}, "geometry": {"type": "Point", "coordinates": [-3.2902570683200087, -74.0549783979554]}}, {"type": "Feature", "properties": {"norad_id": 34486, "name": "IRIDIUM 33 DEB", "group": "iridium-33-debris", "lat": -0.872376238395346, "lon": 15.319351911497955, "alt_km": 591.2501665082, "timestamp": "2025-12-05T11:32:56.402471+00:00", "meta": {"OBJECT_NAME": "IRIDIUM 33 DEB", "OBJECT_ID": "1997-051GB", "EPOCH": "2025-12-04T13:38:06.925344", "MEAN_MOTION": 14.9522889, "ECCENTRICITY": 0.0013076, "INCLINATION": 86.3938, "RA_OF_ASC_NODE": 15.7953, "ARG_OF_PERICENTER": 139.4776, "MEAN_ANOMALY": 348.0834, "EPHEMERIS_TYPE": 0, "CLASSIFICATION_TYPE": "U", "NORAD_CAT_ID": 34486, "ELEMENT_SET_NO": 999, "REV_AT_EPOCH": 88864, "BSTAR": 0.0049776, "MEAN_MOTION_DOT": 0.00055199, "MEAN_MOTION_DDOT": 0}, "tle": {"line1": "1 34486U 97051GB  25338.56813571  .00055199  00000+0  49776-2 0  9997", "line2": "2 34486  86.3938  15.7953 0013076 139.4776 348.0834 14.95228890888640"}}, "geometry": {"type": "Point", "coordinates": [15.319351911497955, -0.872376238395346]}}, {"type": "Feature", "properties": {"norad_id": 34487, "name": "IRIDIUM 33 DEB", "group": "iridium-33-debris", "lat": -59.479744634899944, "lon": 9.276747319975637, "alt_km": 774.6903624851602, "timestamp": "2025-12-05T11:32:56.402481+00:00", "meta": {"OBJECT_NAME": "IRIDIUM 33 DEB", "OBJECT_ID": "1997-051GC", "EPOCH": "2025-12-03T10:12:00.081216", "MEAN_MOTION": 14.43196495, "ECCENTRICITY": 0.00319082, "INCLINATION": 86.3443, "RA_OF_ASC_NODE": 16.3873, "ARG_OF_PERICENTER": 157.9365, "MEAN_ANOMALY": 266.0119, "EPHEMERIS_TYPE": 0, "CLASSIFICATION_TYPE": "U", "NORAD_CAT_ID": 34487, "ELEMENT_SET_NO": 999, "REV_AT_EPOCH": 88114, "BSTAR": 0.00029137047, "MEAN_MOTION_DOT": 1.005e-05, "MEAN_MOTION_DDOT": 0}, "tle": {"line1": "1 34487U 97051GC  25337.42500094  .00001005  00000+0  29137-3 0  9992", "line2": "2 34487  86.3443  16.3873 0031908 157.9365 266.0119 14.43196495881144"}}, "geometry": {"type": "Point", "coordinates": [9.276747319975637, -59.479744634899944]}}, {"type": "Feature", "properties": {"norad_id": 34488, "name": "IRIDIUM 33 DEB", "group": "iridium-33-debris", "lat": -33.19546360404973, "lon": 131.811850074487, "alt_km": 500.7875462277534, "timestamp": "2025-12-05T11:32:56.402491+00:00", "meta": {"OBJECT_NAME": "IRIDIUM 33 DEB", "OBJECT_ID": "1997-051GD", "EPOCH": "2025-12-04T04:43:46.394400", "MEAN_MOTION": 15.26377687, "ECCENTRICITY": 0.00155256, "INCLINATION": 86.3256, "RA_OF_ASC_NODE": 310.0352, "ARG_OF_PERICENTER": 64.3641, "MEAN_ANOMALY": 295.9208, "EPHEMERIS_TYPE": 0, "CLASSIFICATION_TYPE": "U", "NORAD_CAT_ID": 34488, "ELEMENT_SET_NO": 999, "REV_AT_EPOCH": 89109, "BSTAR": 0.0085126879, "MEAN_MOTION_DOT": 0.00228455, "MEAN_MOTION_DDOT": 0}, "tle": {"line1": "1 34488U 97051GD  25338.19706475  .00228455  00000+0  85127-2 0  9999", "line2": "2 34488  86.3256 310.0352 0015525  64.3641 295.9208 15.26377687891099"}}, "geometry": {"type": "Point", "coordinates": [131.811850074487, -33.19546360404973]}}, {"type": "Feature", "properties": {"norad_id": 34492, "name": "IRIDIUM 33 DEB", "group": "iridium-33-debris", "lat": 51.243935511520945, "lon": 153.15525148814302, "alt_km": 894.3925857103632, "timestamp": "2025-12-05T11:32:56.402502+00:00", "meta": {"OBJECT_NAME": "IRIDIUM 33 DEB", "OBJECT_ID": "1997-051GH", "EPOCH": "2025-12-04T06:22:25.668768", "MEAN_MOTION": 14.2534836, "ECCENTRICITY": 0.0190073, "INCLINATION": 86.4709, "RA_OF_ASC_NODE": 338.0551, "ARG_OF_PERICENTER": 265.7011, "MEAN_ANOMALY": 110.4059, "EPHEMERIS_TYPE": 0, "CLASSIFICATION_TYPE": "U", "NORAD_CAT_ID": 34492, "ELEMENT_SET_NO": 999, "REV_AT_EPOCH": 84938, "BSTAR": 0.015697, "MEAN_MOTION_DOT": 0.00044922, "MEAN_MOTION_DDOT": 0}, "tle": {"line1": "1 34492U 97051GH  25338.26557487  .00044922  00000+0  15697-1 0  9998", "line2": "2 34492  86.4709 338.0551 0190073 265.7011 110.4059 14.25348360849383"}}, "geometry": {"type": "Point", "coordinates": [153.15525148814302, 51.243935511520945]}}, {"type": "Feature", "properties": {"norad_id": 34497, "name": "IRIDIUM 33 DEB", "group": "iridium-33-debris", "lat": -40.75618750581685, "lon": 52.28714605595328, "alt_km": 765.6569097161391, "timestamp": "2025-12-05T11:32:56.402512+00:00", "meta": {"OBJECT_NAME": "IRIDIUM 33 DEB", "OBJECT_ID": "1997-051GN", "EPOCH": "2025-12-04T12:14:50.225856", "MEAN_MOTION": 14.27417883, "ECCENTRICITY": 0.0079675, "INCLINATION": 86.2786, "RA_OF_ASC_NODE": 55.9172, "ARG_OF_PERICENTER": 6.4341, "MEAN_ANOMALY": 7.361, "EPHEMERIS_TYPE": 0, "CLASSIFICATION_TYPE": "U", "NORAD_CAT_ID": 34497, "ELEMENT_SET_NO": 999, "REV_AT_EPOCH": 86766, "BSTAR": 0.0011124, "MEAN_MOTION_DOT": 2.839e-05, "MEAN_MOTION_DDOT": 0}, "tle": {"line1": "1 34497U 97051GN  25338.51030354  .00002839  00000+0  11124-2 0  9993", "line2": "2 34497  86.2786  55.9172 0079675   6.4341   7.3610 14.27417883867662"}}, "geometry": {"type": "Point", "coordinates": [52.28714605595328, -40.75618750581685]}}, {"type": "Feature", "properties": {"norad_id": 34508, "name": "IRIDIUM 33 DEB", "group": "iridium-33-debris", "lat": -12.52868933259312, "lon": -73.47219383957918, "alt_km": 721.8639292428343, "timestamp": "2025-12-05T11:32:56.402522+00:00", "meta": {"OBJECT_NAME": "IRIDIUM 33 DEB", "OBJECT_ID": "1997-051GZ", "EPOCH": "2025-12-04T14:37:10.254144", "MEAN_MOTION": 14.38305208, "ECCENTRICITY": 0.0065555, "INCLINATION": 86.3701, "RA_OF_ASC_NODE": 106.0892, "ARG_OF_PERICENTER": 199.4051, "MEAN_ANOMALY": 160.4651, "EPHEMERIS_TYPE": 0, "CLASSIFICATION_TYPE": "U", "NORAD_CAT_ID": 34508, "ELEMENT_SET_NO": 999, "REV_AT_EPOCH": 87192, "BSTAR": 0.0039355, "MEAN_MOTION_DOT": 0.00012307, "MEAN_MOTION_DDOT": 0}, "tle": {"line1": "1 34508U 97051GZ  25338.60914646  .00012307  00000+0  39355-2 0  9998", "line2": "2 34508  86.3701 106.0892 0065555 199.4051 160.4651 14.38305208871922"}}, "geometry": {"type": "Point", "coordinates": [-73.47219383957918, -12.52868933259312]}}, {"type": "Feature", "properties": {"norad_id": 34521, "name": "IRIDIUM 33 DEB", "group": "iridium-33-debris", "lat": 78.8808418852495, "lon": 52.52943108072045, "alt_km": 676.1193574979634, "timestamp": "2025-12-05T11:32:56.402532+00:00", "meta": {"OBJECT_NAME": "IRIDIUM 33 DEB", "OBJECT_ID": "1997-051HN", "EPOCH": "2025-12-04T15:29:32.133120", "MEAN_MOTION": 14.63253587, "ECCENTRICITY": 0.0001112, "INCLINATION": 86.3809, "RA_OF_ASC_NODE": 34.1114, "ARG_OF_PERICENTER": 282.2127, "MEAN_ANOMALY": 77.896, "EPHEMERIS_TYPE": 0, "CLASSIFICATION_TYPE": "U", "NORAD_CAT_ID": 34521, "ELEMENT_SET_NO": 999, "REV_AT_EPOCH": 88354, "BSTAR": 0.0022511, "MEAN_MOTION_DOT": 0.00011629, "MEAN_MOTION_DDOT": 0}, "tle": {"line1": "1 34521U 97051HN  25338.64551080  .00011629  00000+0  22511-2 0  9998", "line2": "2 34521  86.3809  34.1114 0001112 282.2127  77.8960 14.63253587883543"}}, "geometry": {"type": "Point", "coordinates": [52.52943108072045, 78.8808418852495]}}, {"type": "Feature", "properties": {"norad_id": 34525, "name": "IRIDIUM 33 DEB", "group": "iridium-33-debris", "lat": 71.0398838031802, "lon": 60.57961067054238, "alt_km": 738.6559607060472, "timestamp": "2025-12-05T11:32:56.402543+00:00", "meta": {"OBJECT_NAME": "IRIDIUM 33 DEB", "OBJECT_ID": "1997-051HS", "EPOCH": "2025-12-04T15:56:56.567904", "MEAN_MOTION": 14.42875001, "ECCENTRICITY": 0.0006483, "INCLINATION": 86.3735, "RA_OF_ASC_NODE": 50.29, "ARG_OF_PERICENTER": 113.478, "MEAN_ANOMALY": 38.6351, "EPHEMERIS_TYPE": 0, "CLASSIFICATION_TYPE": "U", "NORAD_CAT_ID": 34525, "ELEMENT_SET_NO": 999, "REV_AT_EPOCH": 87971, "BSTAR": 0.0007208, "MEAN_MOTION_DOT": 2.426e-05, "MEAN_MOTION_DDOT": 0}, "tle": {"line1": "1 34525U 97051HS  25338.66454361  .00002426  00000+0  72080-3 0  9990", "line2": "2 34525  86.3735  50.2900 0006483 113.4780  38.6351 14.42875001879714"}}, "geometry": {"type": "Point", "coordinates": [60.57961067054238, 71.0398838031802]}}]}